{
"type": "FeatureCollection",
"name": "roads_26.841_75.563",
"crs": { "type": "name", "properties": { "name": "urn:ogc:def:crs:OGC:1.3:CRS84" } },
"features": [
{ "type": "Feature", "properties": { "name": "Arterial Link", "highway": "tertiary", "slope_pct": 0.6 }, "geometry": { "type": "LineString", "coordinates": [ [ 75.5652216, 26.8386637 ], [ 75.5651078, 26.838932 ], [ 75.5644611, 26.8401366 ], [ 75.5641258, 26.8407481 ], [ 75.5637192, 26.8415098 ], [ 75.5631768, 26.8424782 ], [ 75.5628899, 26.8430168 ], [ 75.5626914, 26.8434274 ], [ 75.5625377, 26.8438516 ], [ 75.562453, 26.8441455 ], [ 75.5623919, 26.844396 ], [ 75.5623881, 26.8444256 ], [ 75.5622673, 26.8453584 ], [ 75.5621904, 26.8459266 ], [ 75.5621364, 26.846384 ], [ 75.5620478, 26.8470432 ], [ 75.5619453, 26.8478394 ], [ 75.5619473, 26.8480511 ], [ 75.5619901, 26.8482386 ], [ 75.5623762, 26.8496416 ], [ 75.5626577, 26.8507802 ], [ 75.5627243, 26.8510497 ], [ 75.5627442, 26.8513672 ], [ 75.5626842, 26.851611 ], [ 75.5625607, 26.8518349 ], [ 75.5621062, 26.852438 ], [ 75.5619474, 26.8526111 ], [ 75.5617245, 26.8527308 ], [ 75.561455, 26.8527835 ], [ 75.5608334, 26.85282 ], [ 75.560168, 26.8528493 ], [ 75.5594656, 26.8528944 ], [ 75.5583925, 26.852965 ], [ 75.5581124, 26.8529481 ], [ 75.5577554, 26.8528662 ], [ 75.5574419, 26.8528466 ], [ 75.5571694, 26.8528633 ], [ 75.5562457, 26.8529178 ], [ 75.555556, 26.8529705 ], [ 75.5544513, 26.8530986 ], [ 75.5542483, 26.8531667 ], [ 75.553821, 26.8532233 ], [ 75.5535188, 26.8532766 ], [ 75.5530509, 26.8533163 ], [ 75.552532, 26.8533604 ], [ 75.5512854, 26.8534662 ], [ 75.5493817, 26.8536278 ], [ 75.548212, 26.8537013 ], [ 75.5478734, 26.8537399 ], [ 75.5473967, 26.853788 ], [ 75.5468999, 26.8537817 ], [ 75.5465498, 26.8538081 ], [ 75.5464626, 26.8538583 ], [ 75.5463258, 26.8539419 ], [ 75.5462668, 26.8540913 ], [ 75.5462291, 26.8542061 ], [ 75.5462086, 26.8545204 ] ] } },
{ "type": "Feature", "properties": { "name": "Arterial Link", "highway": "residential", "slope_pct": 0.6 }, "geometry": { "type": "LineString", "coordinates": [ [ 75.5452313, 26.8510326 ], [ 75.5457085, 26.8509514 ], [ 75.5459375, 26.850913 ], [ 75.5461616, 26.8508661 ], [ 75.5464005, 26.8507998 ], [ 75.5466111, 26.8507531 ], [ 75.5468504, 26.8507202 ], [ 75.547333, 26.8506703 ], [ 75.5475544, 26.8506434 ], [ 75.5477805, 26.8506009 ], [ 75.5479521, 26.85056 ], [ 75.5481462, 26.8505036 ], [ 75.5482323, 26.8504735 ], [ 75.5483828, 26.8503898 ], [ 75.5484466, 26.8503448 ], [ 75.5485232, 26.8502906 ], [ 75.5487705, 26.8501041 ], [ 75.5489422, 26.8499504 ], [ 75.5491119, 26.8497499 ], [ 75.5492576, 26.8495639 ], [ 75.5494788, 26.8492772 ], [ 75.5495606, 26.8491822 ], [ 75.5496315, 26.8491582 ], [ 75.549776, 26.8491092 ], [ 75.550006, 26.8490632 ], [ 75.550242, 26.8490229 ], [ 75.550579, 26.8489572 ], [ 75.5507044, 26.8489325 ], [ 75.5511284, 26.848849 ], [ 75.5514118, 26.8487864 ], [ 75.5517309, 26.8487046 ], [ 75.5520259, 26.8486253 ], [ 75.5522216, 26.8485771 ], [ 75.5523187, 26.8485362 ], [ 75.5526861, 26.8484638 ], [ 75.5528433, 26.8484376 ], [ 75.5530987, 26.8484459 ], [ 75.5533502, 26.8484753 ], [ 75.5534796, 26.8485079 ], [ 75.5535585, 26.8485672 ], [ 75.553735, 26.8487802 ], [ 75.5538263, 26.8488438 ], [ 75.5541435, 26.8489668 ], [ 75.5545076, 26.8490724 ], [ 75.5548381, 26.849135 ], [ 75.5550873, 26.8491449 ], [ 75.5553531, 26.8491309 ], [ 75.5555381, 26.8491359 ], [ 75.5557262, 26.8491586 ], [ 75.5559066, 26.8491937 ], [ 75.5560136, 26.8492051 ], [ 75.556111, 26.8491994 ], [ 75.5563968, 26.8491638 ], [ 75.5565741, 26.8491454 ], [ 75.5567468, 26.8491396 ], [ 75.5568828, 26.8491145 ], [ 75.5572271, 26.8490939 ], [ 75.5573824, 26.8490676 ], [ 75.5575403, 26.8490485 ], [ 75.5578999, 26.8490218 ], [ 75.5579737, 26.8489937 ], [ 75.5580325, 26.8489443 ], [ 75.5580721, 26.8488844 ], [ 75.558241, 26.8485602 ], [ 75.5583, 26.8484429 ], [ 75.5583557, 26.8482856 ], [ 75.5584596, 26.8478937 ], [ 75.5585763, 26.8475407 ], [ 75.5587123, 26.8471839 ], [ 75.5589368, 26.8466047 ], [ 75.5589832, 26.8465401 ], [ 75.559067, 26.8464812 ], [ 75.5591864, 26.846487 ], [ 75.5595083, 26.8464655 ], [ 75.559775, 26.8464341 ], [ 75.5607359, 26.846218 ], [ 75.5621904, 26.8459266 ] ] } },
{ "type": "Feature", "properties": { "name": "Arterial Link", "highway": "tertiary", "slope_pct": 0.6 }, "geometry": { "type": "LineString", "coordinates": [ [ 75.5652216, 26.8386637 ], [ 75.5652657, 26.8387976 ], [ 75.5652894, 26.8388331 ], [ 75.5653515, 26.8389371 ], [ 75.5654857, 26.8391375 ], [ 75.5656479, 26.8393743 ], [ 75.5659001, 26.8398171 ], [ 75.5661506, 26.8402787 ], [ 75.5663373, 26.8406452 ], [ 75.5664928, 26.8409408 ], [ 75.566789, 26.8415104 ], [ 75.5670762, 26.8420189 ], [ 75.5672999, 26.8425574 ], [ 75.5676218, 26.8433165 ], [ 75.5678171, 26.8436805 ], [ 75.5678789, 26.8437936 ], [ 75.5679939, 26.8439939 ], [ 75.568372, 26.8445614 ], [ 75.5684411, 26.8446895 ], [ 75.5685062, 26.8448603 ], [ 75.568545, 26.845016 ], [ 75.5685556, 26.8450589 ], [ 75.5686206, 26.8453213 ], [ 75.5686936, 26.8457217 ], [ 75.5687756, 26.8462307 ], [ 75.5688213, 26.846774 ], [ 75.5688651, 26.8473449 ], [ 75.5688965, 26.8478923 ], [ 75.5689339, 26.8482392 ], [ 75.5690197, 26.8486076 ], [ 75.569117, 26.8488664 ], [ 75.569223, 26.849046 ], [ 75.5693221, 26.8491645 ], [ 75.5694858, 26.8492659 ], [ 75.5703187, 26.8496425 ], [ 75.5707893, 26.8498659 ], [ 75.5709607, 26.8499723 ], [ 75.5711049, 26.8501271 ], [ 75.5712306, 26.8503596 ], [ 75.5715396, 26.8509427 ], [ 75.5718993, 26.8516626 ], [ 75.5722617, 26.8525155 ], [ 75.5723547, 26.8527118 ], [ 75.5724839, 26.8528652 ], [ 75.5726544, 26.8529932 ], [ 75.5729617, 26.8531408 ], [ 75.5732604, 26.853256 ], [ 75.5735251, 26.8533219 ], [ 75.5737951, 26.8533616 ], [ 75.5741395, 26.8533369 ], [ 75.5745358, 26.8532562 ], [ 75.5749967, 26.8532039 ], [ 75.5753905, 26.8532014 ], [ 75.5756796, 26.8532403 ], [ 75.5759249, 26.8533361 ], [ 75.5761292, 26.8534854 ], [ 75.5763178, 26.8536566 ], [ 75.576446, 26.8537749 ], [ 75.5765881, 26.8539035 ], [ 75.5767896, 26.854046 ], [ 75.57701, 26.8541506 ], [ 75.5774822, 26.8543168 ], [ 75.5781841, 26.8546139 ], [ 75.5786922, 26.8548015 ], [ 75.5790936, 26.8549534 ], [ 75.5799133, 26.8552446 ], [ 75.5803953, 26.8554158 ], [ 75.5813324, 26.8557398 ], [ 75.5818725, 26.8559322 ], [ 75.582438, 26.8560985 ], [ 75.5826131, 26.8561796 ], [ 75.5827416, 26.8562854 ], [ 75.5828758, 26.8564682 ], [ 75.5829578, 26.8566103 ], [ 75.5832193, 26.8570569 ], [ 75.5832858, 26.8572025 ], [ 75.5833377, 26.8574139 ], [ 75.5833698, 26.8576557 ], [ 75.5833903, 26.8579619 ], [ 75.5833807, 26.8582843 ], [ 75.5833424, 26.8584841 ], [ 75.5833126, 26.8585921 ], [ 75.5832555, 26.8587189 ], [ 75.583056, 26.8589449 ], [ 75.5828921, 26.8591479 ], [ 75.5828044, 26.8593504 ], [ 75.5827636, 26.8595958 ], [ 75.5827325, 26.8600768 ], [ 75.5827294, 26.8603978 ], [ 75.5827892, 26.8607109 ], [ 75.5828907, 26.8610108 ], [ 75.5830702, 26.861551 ], [ 75.5831979, 26.8619439 ] ] } },
{ "type": "Feature", "properties": { "name": "Arterial Link", "highway": "residential", "slope_pct": 0.6 }, "geometry": { "type": "LineString", "coordinates": [ [ 75.5542887, 26.8242927 ], [ 75.5543638, 26.8248982 ], [ 75.5543923, 26.8250814 ], [ 75.5545387, 26.8257834 ], [ 75.5545453, 26.8258461 ], [ 75.5545311, 26.825889 ], [ 75.5545067, 26.8259271 ], [ 75.5544661, 26.8259507 ], [ 75.5543441, 26.8260105 ], [ 75.5542689, 26.8260613 ], [ 75.5542181, 26.8261212 ], [ 75.5540798, 26.8263806 ], [ 75.5540453, 26.8264386 ], [ 75.5540046, 26.8264803 ], [ 75.5539375, 26.826562 ], [ 75.5538806, 26.8266418 ], [ 75.55384, 26.8267252 ], [ 75.5537161, 26.8269964 ], [ 75.5536856, 26.827089 ], [ 75.5536571, 26.8271923 ], [ 75.5534699, 26.827839 ], [ 75.5534376, 26.8280132 ], [ 75.5534275, 26.8281565 ], [ 75.5534417, 26.8285193 ], [ 75.55346, 26.8286463 ], [ 75.5534844, 26.8287515 ], [ 75.553525, 26.8288639 ], [ 75.5535942, 26.8289927 ], [ 75.5536754, 26.8291603 ], [ 75.553832, 26.8294836 ], [ 75.5538506, 26.8295398 ], [ 75.55386, 26.8296003 ], [ 75.553867, 26.8296732 ], [ 75.5538133, 26.831011 ], [ 75.5538063, 26.8311859 ], [ 75.5537813, 26.8312321 ], [ 75.5537505, 26.8312569 ], [ 75.5537073, 26.8312734 ], [ 75.5536396, 26.8312803 ], [ 75.5535209, 26.8312803 ], [ 75.5534763, 26.8312981 ], [ 75.5534377, 26.8313242 ], [ 75.5534177, 26.8313614 ], [ 75.55341, 26.8313971 ], [ 75.5534138, 26.832121 ], [ 75.5534176, 26.8321553 ], [ 75.5534284, 26.8321938 ], [ 75.5534869, 26.832268 ], [ 75.5535255, 26.8323189 ], [ 75.5535486, 26.8323766 ], [ 75.5535686, 26.8324701 ], [ 75.5535963, 26.8327142 ], [ 75.5536045, 26.8328085 ], [ 75.5536085, 26.8329119 ], [ 75.5536149, 26.8333464 ], [ 75.5536196, 26.8334372 ], [ 75.5536165, 26.8334921 ], [ 75.5535573, 26.8340408 ], [ 75.5535476, 26.8341306 ], [ 75.5535405, 26.8342379 ], [ 75.5535388, 26.8343216 ], [ 75.5535395, 26.8344502 ], [ 75.5535338, 26.8348382 ], [ 75.5535433, 26.8348871 ], [ 75.5535667, 26.8349201 ], [ 75.5536507, 26.8349521 ], [ 75.553779, 26.8349431 ], [ 75.5538568, 26.8349276 ], [ 75.5539346, 26.8349108 ], [ 75.5542551, 26.8348187 ], [ 75.5543651, 26.8347983 ], [ 75.5544616, 26.8347935 ], [ 75.5546408, 26.8348054 ], [ 75.5548324, 26.8348181 ], [ 75.5549343, 26.8348181 ], [ 75.5550255, 26.8348133 ], [ 75.5551448, 26.8348133 ], [ 75.5555459, 26.8348133 ], [ 75.5557055, 26.8348109 ], [ 75.5560805, 26.8348202 ], [ 75.5561448, 26.8348186 ], [ 75.5562369, 26.8348088 ], [ 75.5562778, 26.834803 ], [ 75.5564879, 26.8347733 ], [ 75.5566619, 26.8347536 ], [ 75.5568895, 26.8347379 ], [ 75.5571923, 26.8347348 ], [ 75.5580473, 26.8347261 ], [ 75.5581121, 26.8347208 ], [ 75.5581676, 26.8347145 ], [ 75.5582096, 26.8346998 ], [ 75.55827, 26.8346723 ], [ 75.5585898, 26.8344821 ], [ 75.558753, 26.834385 ], [ 75.5589353, 26.8343044 ], [ 75.5589781, 26.8342904 ], [ 75.5590751, 26.8342586 ], [ 75.5591937, 26.8342365 ], [ 75.5593228, 26.8342349 ], [ 75.5594131, 26.8342413 ], [ 75.5598522, 26.8343189 ], [ 75.560308, 26.8343995 ], [ 75.560499, 26.8344229 ], [ 75.5606577, 26.8344366 ], [ 75.560955, 26.8344476 ], [ 75.5610613, 26.8344572 ], [ 75.5611707, 26.8344737 ], [ 75.5612986, 26.8344875 ], [ 75.5613602, 26.834482 ], [ 75.5614021, 26.8344547 ], [ 75.5614151, 26.8344139 ], [ 75.5613906, 26.834377 ], [ 75.5609383, 26.8338632 ], [ 75.5608183, 26.833671 ], [ 75.560739, 26.8335331 ], [ 75.560676, 26.8333953 ], [ 75.5606312, 26.8332959 ], [ 75.5606049, 26.8332375 ], [ 75.5603032, 26.8325772 ], [ 75.5602354, 26.8324527 ], [ 75.560197, 26.8323494 ], [ 75.5601784, 26.8322557 ], [ 75.5601036, 26.8318681 ], [ 75.5600733, 26.8317785 ], [ 75.5600149, 26.8316848 ], [ 75.559931, 26.8316039 ], [ 75.5597349, 26.8313979 ], [ 75.5596765, 26.8313292 ], [ 75.5596438, 26.8312583 ], [ 75.5596275, 26.8311917 ], [ 75.5594688, 26.8306586 ], [ 75.5594403, 26.8305316 ], [ 75.5594322, 26.8304482 ], [ 75.5594248, 26.8303997 ], [ 75.5593488, 26.8299004 ], [ 75.5593314, 26.8298356 ], [ 75.5593037, 26.8297709 ], [ 75.5591219, 26.8295111 ], [ 75.5590942, 26.829452 ], [ 75.5590788, 26.8293902 ], [ 75.5590217, 26.8291233 ], [ 75.5590019, 26.8290511 ], [ 75.5589649, 26.8289728 ], [ 75.5583804, 26.8280864 ], [ 75.5582195, 26.8279189 ], [ 75.5580974, 26.827804 ], [ 75.5577028, 26.8274769 ], [ 75.5576561, 26.827431 ], [ 75.5576281, 26.8273789 ], [ 75.5576117, 26.8273269 ], [ 75.5575619, 26.8270507 ], [ 75.5575283, 26.8269133 ], [ 75.557423, 26.8265487 ], [ 75.5574007, 26.8264713 ], [ 75.5573876, 26.8263698 ], [ 75.557384, 26.826294 ], [ 75.5573964, 26.8261581 ], [ 75.5574141, 26.8261029 ], [ 75.5574406, 26.8260681 ], [ 75.5574778, 26.8260492 ], [ 75.5575344, 26.8260302 ], [ 75.5579821, 26.8259355 ], [ 75.5580264, 26.8259134 ], [ 75.5580565, 26.8258786 ], [ 75.5580759, 26.8258281 ], [ 75.558089, 26.8255611 ], [ 75.5580909, 26.8255221 ], [ 75.5581001, 26.825335 ], [ 75.5580924, 26.8252773 ], [ 75.5580769, 26.8252168 ], [ 75.5580586, 26.8250629 ] ] } },
{ "type": "Feature", "properties": { "name": "Arterial Link", "highway": "residential", "slope_pct": 0.6 }, "geometry": { "type": "LineString", "coordinates": [ [ 75.5538133, 26.831011 ], [ 75.5545771, 26.8309803 ], [ 75.5546658, 26.8309803 ], [ 75.5547405, 26.830997 ], [ 75.5548806, 26.8310637 ], [ 75.5549833, 26.8310929 ], [ 75.5550978, 26.8311054 ], [ 75.5557235, 26.8311283 ], [ 75.5558123, 26.8311366 ], [ 75.555894, 26.8311595 ], [ 75.5564801, 26.8314512 ], [ 75.5565548, 26.8314825 ], [ 75.5566575, 26.8315096 ], [ 75.556966, 26.8315281 ], [ 75.5570214, 26.8315444 ], [ 75.5570408, 26.8315711 ], [ 75.5570448, 26.8316146 ], [ 75.5570624, 26.8325743 ], [ 75.5570708, 26.8330316 ], [ 75.5570754, 26.833076 ], [ 75.5570949, 26.8331076 ], [ 75.5571391, 26.8331218 ], [ 75.5577054, 26.8331544 ], [ 75.5577691, 26.8331581 ], [ 75.5578098, 26.8331707 ], [ 75.5578346, 26.8331992 ], [ 75.5578416, 26.8332307 ], [ 75.5578251, 26.8335544 ], [ 75.5578154, 26.8337451 ], [ 75.5578205, 26.8338217 ], [ 75.5578368, 26.8338961 ], [ 75.5578571, 26.8339705 ], [ 75.557885, 26.8340484 ], [ 75.5581676, 26.8347145 ] ] } },
{ "type": "Feature", "properties": { "name": "Arterial Link", "highway": "residential", "slope_pct": 0.6 }, "geometry": { "type": "LineString", "coordinates": [ [ 75.5590751, 26.8342586 ], [ 75.5589972, 26.8338971 ], [ 75.5589795, 26.8338497 ], [ 75.5589547, 26.8338197 ], [ 75.558914, 26.833796 ], [ 75.5578251, 26.8335544 ] ] } },
{ "type": "Feature", "properties": { "name": "Arterial Link", "highway": "residential", "slope_pct": 0.6 }, "geometry": { "type": "LineString", "coordinates": [ [ 75.5624777, 26.8335607 ], [ 75.5627319, 26.8335589 ], [ 75.5628316, 26.8335825 ], [ 75.5629109, 26.833617 ], [ 75.562974, 26.8336624 ], [ 75.5632364, 26.8340998 ], [ 75.5632669, 26.8341379 ], [ 75.5633076, 26.8341652 ], [ 75.5635849, 26.8343072 ] ] } },
{ "type": "Feature", "properties": { "name": "Arterial Link", "highway": "tertiary", "slope_pct": 0.6 }, "geometry": { "type": "LineString", "coordinates": [ [ 75.5704432, 26.8293666 ], [ 75.5703158, 26.8296919 ], [ 75.5701008, 26.8302752 ], [ 75.5700312, 26.8304173 ], [ 75.5699286, 26.8305352 ], [ 75.5697466, 26.8306835 ], [ 75.5685693, 26.831462 ], [ 75.5683516, 26.831613 ], [ 75.5659178, 26.8332692 ], [ 75.5651339, 26.8338812 ], [ 75.5650228, 26.8339583 ], [ 75.5649518, 26.8340013 ], [ 75.5648957, 26.8340354 ], [ 75.5641844, 26.8344446 ], [ 75.5641179, 26.8345045 ], [ 75.5640852, 26.8345839 ], [ 75.5640814, 26.8347103 ], [ 75.5643407, 26.8357973 ], [ 75.5643724, 26.8359299 ], [ 75.5643812, 26.8359718 ], [ 75.5644106, 26.8361117 ], [ 75.5644508, 26.8362454 ], [ 75.5644735, 26.8363211 ], [ 75.5647475, 26.8370702 ], [ 75.5651369, 26.8380756 ], [ 75.5652043, 26.8384148 ], [ 75.5652146, 26.8385116 ], [ 75.5652216, 26.8386637 ] ] } },
{ "type": "Feature", "properties": { "name": "Arterial Link", "highway": "tertiary", "slope_pct": 0.6 }, "geometry": { "type": "LineString", "coordinates": [ [ 75.5636439, 26.8269811 ], [ 75.5635309, 26.8273741 ], [ 75.5634842, 26.8275013 ], [ 75.5634421, 26.8276056 ], [ 75.5633954, 26.8276827 ], [ 75.5632606, 26.8278129 ], [ 75.5632252, 26.8278714 ], [ 75.5632145, 26.8279409 ], [ 75.5632163, 26.8280072 ], [ 75.5633243, 26.8287831 ], [ 75.5633359, 26.8289929 ], [ 75.5633453, 26.8292285 ], [ 75.5633546, 26.8298519 ], [ 75.5633453, 26.8299729 ], [ 75.5633149, 26.8300855 ], [ 75.5632705, 26.8301626 ], [ 75.5631326, 26.8303065 ], [ 75.5630836, 26.8303815 ], [ 75.5630626, 26.830467 ], [ 75.5630672, 26.8305775 ], [ 75.5630953, 26.8307318 ], [ 75.5631303, 26.8308423 ], [ 75.5633967, 26.8314782 ], [ 75.5634271, 26.8315533 ], [ 75.5634434, 26.8316221 ], [ 75.5634481, 26.8317034 ], [ 75.5633126, 26.8324102 ], [ 75.5633126, 26.8324915 ], [ 75.5633266, 26.8326041 ], [ 75.563357, 26.8327146 ], [ 75.5635906, 26.8333568 ], [ 75.5636257, 26.8334798 ], [ 75.5636607, 26.8336195 ], [ 75.5637221, 26.8341475 ], [ 75.5637257, 26.8341782 ], [ 75.5637311, 26.8342562 ], [ 75.5637311, 26.8344368 ], [ 75.5637297, 26.8345158 ], [ 75.563723, 26.8348799 ], [ 75.5637257, 26.8349829 ], [ 75.5637257, 26.8350739 ], [ 75.5637273, 26.835154 ], [ 75.5637167, 26.835195 ], [ 75.563699, 26.8352472 ], [ 75.5636675, 26.835379 ], [ 75.5636695, 26.8354552 ], [ 75.5636919, 26.8355205 ], [ 75.5637264, 26.8355859 ], [ 75.5638322, 26.8357075 ], [ 75.563877, 26.8357746 ], [ 75.5639054, 26.8358527 ], [ 75.564027, 26.8362324 ], [ 75.5640402, 26.8362739 ], [ 75.5640682, 26.8363114 ], [ 75.564108, 26.8363302 ], [ 75.5641594, 26.8363302 ], [ 75.5644508, 26.8362454 ] ] } },
{ "type": "Feature", "properties": { "name": "Arterial Link", "highway": "residential", "slope_pct": 0.6 }, "geometry": { "type": "LineString", "coordinates": [ [ 75.5562778, 26.834803 ], [ 75.5562552, 26.8343951 ] ] } },
{ "type": "Feature", "properties": { "name": "Arterial Link", "highway": "residential", "slope_pct": 0.6 }, "geometry": { "type": "LineString", "coordinates": [ [ 75.5589465, 26.8386023 ], [ 75.5591187, 26.8386382 ], [ 75.5594539, 26.8385389 ], [ 75.559796, 26.8384464 ], [ 75.5606835, 26.8382381 ], [ 75.5607144, 26.8382271 ], [ 75.5607267, 26.8382079 ], [ 75.5607333, 26.8381753 ], [ 75.5607588, 26.8379237 ], [ 75.5607883, 26.8378279 ], [ 75.5608205, 26.8377537 ], [ 75.5610544, 26.8372613 ] ] } },
{ "type": "Feature", "properties": { "name": "Arterial Link", "highway": "residential", "slope_pct": 0.6 }, "geometry": { "type": "LineString", "coordinates": [ [ 75.5608255, 26.8389269 ], [ 75.559007, 26.8390355 ] ] } },
{ "type": "Feature", "properties": { "name": "Arterial Link", "highway": "residential", "slope_pct": 0.6 }, "geometry": { "type": "LineString", "coordinates": [ [ 75.5593165, 26.8382559 ], [ 75.5591626, 26.8381295 ], [ 75.5591023, 26.8380575 ], [ 75.559082, 26.837953 ], [ 75.5593872, 26.8378277 ], [ 75.5595176, 26.8377998 ], [ 75.5596247, 26.8381145 ] ] } },
{ "type": "Feature", "properties": { "name": "Arterial Link", "highway": "residential", "slope_pct": 0.6 }, "geometry": { "type": "LineString", "coordinates": [ [ 75.5601481, 26.8378579 ], [ 75.5600126, 26.8376139 ], [ 75.5599702, 26.8376086 ], [ 75.5598997, 26.8376129 ], [ 75.5595736, 26.8376711 ], [ 75.5595407, 26.837708 ], [ 75.5595176, 26.8377998 ] ] } },
{ "type": "Feature", "properties": { "name": "Arterial Link", "highway": "residential", "slope_pct": 0.6 }, "geometry": { "type": "LineString", "coordinates": [ [ 75.5618253, 26.834834 ], [ 75.5621399, 26.8350257 ], [ 75.562178, 26.8350554 ], [ 75.5622293, 26.8351138 ], [ 75.5622701, 26.8351739 ], [ 75.5625314, 26.8357588 ] ] } },
{ "type": "Feature", "properties": { "name": "Arterial Link", "highway": "residential", "slope_pct": 0.6 }, "geometry": { "type": "LineString", "coordinates": [ [ 75.5624439, 26.8349786 ], [ 75.5621399, 26.8350257 ] ] } },
{ "type": "Feature", "properties": { "name": "Arterial Link", "highway": "residential", "slope_pct": 0.6 }, "geometry": { "type": "LineString", "coordinates": [ [ 75.5620169, 26.8342101 ], [ 75.5613906, 26.834377 ] ] } },
{ "type": "Feature", "properties": { "name": "Arterial Link", "highway": "residential", "slope_pct": 0.6 }, "geometry": { "type": "LineString", "coordinates": [ [ 75.5628746, 26.8342251 ], [ 75.5626779, 26.8338671 ] ] } },
{ "type": "Feature", "properties": { "name": "Arterial Link", "highway": "residential", "slope_pct": 0.6 }, "geometry": { "type": "LineString", "coordinates": [ [ 75.5590005, 26.8389806 ], [ 75.5582787, 26.839005 ] ] } },
{ "type": "Feature", "properties": { "name": "Arterial Link", "highway": "residential", "slope_pct": 0.6 }, "geometry": { "type": "LineString", "coordinates": [ [ 75.559067, 26.8464812 ], [ 75.5589716, 26.8464813 ], [ 75.5589097, 26.8464733 ], [ 75.5587992, 26.8464817 ], [ 75.5586256, 26.8465069 ], [ 75.5585452, 26.8465182 ], [ 75.5584585, 26.8465001 ], [ 75.5583473, 26.8464844 ], [ 75.5577973, 26.8465789 ], [ 75.5573806, 26.8466397 ], [ 75.556964, 26.8466715 ], [ 75.5568815, 26.8466775 ], [ 75.556859, 26.8467151 ], [ 75.5568299, 26.8467774 ], [ 75.5564216, 26.8468697 ], [ 75.5559772, 26.8469658 ], [ 75.5549695, 26.8471737 ] ] } },
{ "type": "Feature", "properties": { "name": "Arterial Link", "highway": "residential", "slope_pct": 0.6 }, "geometry": { "type": "LineString", "coordinates": [ [ 75.5538712, 26.8475839 ], [ 75.5538315, 26.8468443 ], [ 75.5538776, 26.8467404 ], [ 75.5540889, 26.8465167 ], [ 75.5543441, 26.8463083 ], [ 75.5545119, 26.8460253 ], [ 75.5545968, 26.8459065 ], [ 75.554832, 26.8455517 ], [ 75.5549129, 26.8454541 ], [ 75.5552392, 26.8451087 ], [ 75.555542, 26.8448914 ], [ 75.5555904, 26.8447351 ], [ 75.5557374, 26.844625 ], [ 75.5559504, 26.8444894 ], [ 75.5561811, 26.8443553 ], [ 75.5563594, 26.844207 ], [ 75.5564734, 26.8440778 ], [ 75.5565646, 26.8439174 ], [ 75.5565915, 26.8437739 ], [ 75.5565834, 26.8436183 ], [ 75.556514, 26.8433169 ], [ 75.5561623, 26.8419851 ], [ 75.5561163, 26.8419157 ], [ 75.5560454, 26.8418349 ], [ 75.55598, 26.8417807 ], [ 75.5559263, 26.8417682 ], [ 75.5558772, 26.8417682 ], [ 75.5557838, 26.841787 ], [ 75.5557091, 26.8417911 ], [ 75.5556391, 26.8417786 ], [ 75.5555597, 26.8417516 ], [ 75.5553052, 26.8416016 ], [ 75.5551394, 26.8414661 ], [ 75.5550226, 26.8413453 ], [ 75.5549925, 26.8413087 ], [ 75.5549199, 26.8412203 ], [ 75.5548265, 26.8410786 ], [ 75.5547564, 26.8409494 ], [ 75.5544498, 26.8401696 ], [ 75.5544007, 26.8400448 ], [ 75.5542939, 26.8397883 ], [ 75.5537883, 26.838496 ], [ 75.5537051, 26.8382458 ], [ 75.5536466, 26.8380451 ], [ 75.5535184, 26.8374681 ], [ 75.553501, 26.8374144 ], [ 75.5534759, 26.8373843 ], [ 75.5534437, 26.837373 ], [ 75.5533923, 26.837371 ], [ 75.5525774, 26.8374355 ] ] } },
{ "type": "Feature", "properties": { "name": "Arterial Link", "highway": "residential", "slope_pct": 0.6 }, "geometry": { "type": "LineString", "coordinates": [ [ 75.5544007, 26.8400448 ], [ 75.5548684, 26.8399355 ], [ 75.5558111, 26.8397151 ], [ 75.5561217, 26.8396526 ], [ 75.5573732, 26.8393546 ], [ 75.5575694, 26.8392984 ], [ 75.5577328, 26.8392359 ], [ 75.5578566, 26.8391713 ], [ 75.5589465, 26.8386023 ], [ 75.5590454, 26.8384854 ], [ 75.5592683, 26.8383801 ], [ 75.5593165, 26.8382559 ], [ 75.5596247, 26.8381145 ], [ 75.5599428, 26.837968 ], [ 75.5601481, 26.8378579 ], [ 75.5603633, 26.8375951 ], [ 75.5604486, 26.8375388 ], [ 75.5605401, 26.8374881 ], [ 75.5609609, 26.8373121 ], [ 75.5610544, 26.8372613 ], [ 75.5611276, 26.8372087 ], [ 75.5613288, 26.8370147 ], [ 75.5614284, 26.8368877 ], [ 75.5614996, 26.8367662 ], [ 75.5615253, 26.8367029 ], [ 75.5615804, 26.8365872 ], [ 75.5617422, 26.8361935 ], [ 75.5617663, 26.8361241 ], [ 75.561777, 26.8360499 ], [ 75.5617663, 26.8356071 ], [ 75.561777, 26.8354539 ], [ 75.5618119, 26.8353055 ], [ 75.5618521, 26.8350471 ], [ 75.5618468, 26.834925 ], [ 75.5618253, 26.834834 ], [ 75.5617931, 26.8347646 ], [ 75.5616966, 26.8346306 ], [ 75.5616124, 26.8345562 ], [ 75.5614151, 26.8344139 ] ] } },
{ "type": "Feature", "properties": { "name": "Arterial Link", "highway": "residential", "slope_pct": 0.6 }, "geometry": { "type": "LineString", "coordinates": [ [ 75.5617663, 26.8361241 ], [ 75.5619759, 26.836069 ], [ 75.5621378, 26.8362106 ], [ 75.5621732, 26.8362505 ], [ 75.5622025, 26.8362932 ], [ 75.5622719, 26.8364321 ], [ 75.5622981, 26.836461 ], [ 75.5623336, 26.8364761 ], [ 75.5626681, 26.8364679 ], [ 75.5627775, 26.8364582 ], [ 75.5628916, 26.8364348 ], [ 75.5629933, 26.8364073 ], [ 75.5635334, 26.836202 ], [ 75.5635835, 26.8361862 ], [ 75.5636524, 26.836187 ], [ 75.564027, 26.8362324 ] ] } },
{ "type": "Feature", "properties": { "name": "Arterial Link", "highway": "residential", "slope_pct": 0.6 }, "geometry": { "type": "LineString", "coordinates": [ [ 75.5619759, 26.836069 ], [ 75.5623982, 26.8358232 ], [ 75.5624607, 26.8357917 ], [ 75.5625314, 26.8357588 ], [ 75.5626514, 26.8357265 ], [ 75.562705, 26.8357205 ], [ 75.5627507, 26.8357205 ], [ 75.5628473, 26.8357145 ], [ 75.5629251, 26.8357013 ], [ 75.5629949, 26.8356774 ], [ 75.5631373, 26.8356153 ], [ 75.563182, 26.8355836 ], [ 75.5632051, 26.8355506 ], [ 75.5632558, 26.8353978 ], [ 75.5632775, 26.8353644 ], [ 75.5633165, 26.8353407 ], [ 75.563699, 26.8352472 ] ] } },
{ "type": "Feature", "properties": { "name": "Arterial Link", "highway": "residential", "slope_pct": 0.6 }, "geometry": { "type": "LineString", "coordinates": [ [ 75.5630595, 26.8360722 ], [ 75.5630119, 26.8359185 ], [ 75.562996, 26.8358963 ], [ 75.5629783, 26.8358837 ], [ 75.5629198, 26.8358742 ], [ 75.5628933, 26.8358616 ], [ 75.5628791, 26.8358363 ], [ 75.5628473, 26.8357145 ] ] } },
{ "type": "Feature", "properties": { "name": "Arterial Link", "highway": "residential", "slope_pct": 0.6 }, "geometry": { "type": "LineString", "coordinates": [ [ 75.5632558, 26.8353978 ], [ 75.5629725, 26.8350936 ], [ 75.5629509, 26.8350551 ], [ 75.5629409, 26.8350042 ], [ 75.5629216, 26.8347993 ] ] } },
{ "type": "Feature", "properties": { "name": "Arterial Link", "highway": "residential", "slope_pct": 0.6 }, "geometry": { "type": "LineString", "coordinates": [ [ 75.5616966, 26.8346306 ], [ 75.5623188, 26.8345592 ], [ 75.5629001, 26.8344925 ], [ 75.5630807, 26.8344704 ], [ 75.563217, 26.8344356 ], [ 75.5635849, 26.8343072 ], [ 75.5637311, 26.8342562 ] ] } },
{ "type": "Feature", "properties": { "name": "Arterial Link", "highway": "residential", "slope_pct": 0.6 }, "geometry": { "type": "LineString", "coordinates": [ [ 75.5627417, 26.8342546 ], [ 75.5628746, 26.8342251 ], [ 75.5632669, 26.8341379 ] ] } },
{ "type": "Feature", "properties": { "name": "Arterial Link", "highway": "residential", "slope_pct": 0.6 }, "geometry": { "type": "LineString", "coordinates": [ [ 75.5568299, 26.8467774 ], [ 75.5568604, 26.8470162 ] ] } },
{ "type": "Feature", "properties": { "name": "Arterial Link", "highway": "residential", "slope_pct": 0.6 }, "geometry": { "type": "LineString", "coordinates": [ [ 75.5591864, 26.846487 ], [ 75.5592844, 26.845702 ], [ 75.5595124, 26.8448189 ], [ 75.5596921, 26.8442661 ], [ 75.5594882, 26.8438928 ] ] } },
{ "type": "Feature", "properties": { "name": "Vasundara , vasundara nagar", "highway": "residential", "slope_pct": 0.6 }, "geometry": { "type": "LineString", "coordinates": [ [ 75.5647475, 26.8370702 ], [ 75.5651315, 26.8370049 ], [ 75.5662672, 26.8368118 ], [ 75.5665957, 26.8367559 ], [ 75.5666303, 26.8367441 ], [ 75.5666526, 26.8367312 ], [ 75.566659, 26.8367073 ], [ 75.5665878, 26.8364307 ], [ 75.566574, 26.8364032 ], [ 75.5665447, 26.8363908 ], [ 75.5661818, 26.8364052 ] ] } },
{ "type": "Feature", "properties": { "name": "Arterial Link", "highway": "residential", "slope_pct": 0.6 }, "geometry": { "type": "LineString", "coordinates": [ [ 75.5688871, 26.8375233 ], [ 75.5687618, 26.8371557 ] ] } },
{ "type": "Feature", "properties": { "name": "Arterial Link", "highway": "residential", "slope_pct": 0.6 }, "geometry": { "type": "LineString", "coordinates": [ [ 75.5685084, 26.837656 ], [ 75.5683754, 26.8372547 ] ] } },
{ "type": "Feature", "properties": { "name": "Arterial Link", "highway": "residential", "slope_pct": 0.6 }, "geometry": { "type": "LineString", "coordinates": [ [ 75.5692481, 26.8373528 ], [ 75.5691407, 26.8370585 ] ] } },
{ "type": "Feature", "properties": { "name": "Arterial Link", "highway": "residential", "slope_pct": 0.6 }, "geometry": { "type": "LineString", "coordinates": [ [ 75.5689554, 26.8381508 ], [ 75.5687803, 26.83781 ] ] } },
{ "type": "Feature", "properties": { "name": "Arterial Link", "highway": "residential", "slope_pct": 0.6 }, "geometry": { "type": "LineString", "coordinates": [ [ 75.5685987, 26.8382801 ], [ 75.5684181, 26.8379604 ] ] } },
{ "type": "Feature", "properties": { "name": "Arterial Link", "highway": "residential", "slope_pct": 0.6 }, "geometry": { "type": "LineString", "coordinates": [ [ 75.5673201, 26.8372222 ], [ 75.5672191, 26.8368782 ], [ 75.566747, 26.8352702 ], [ 75.5667101, 26.8352043 ], [ 75.5666577, 26.8351658 ], [ 75.566593, 26.8351603 ], [ 75.5665323, 26.8351795 ], [ 75.566268, 26.8352884 ], [ 75.566144, 26.8353319 ], [ 75.5659977, 26.8353736 ], [ 75.5652586, 26.8356077 ], [ 75.5652299, 26.8356148 ], [ 75.5651255, 26.835641 ], [ 75.5649667, 26.8356764 ], [ 75.5643407, 26.8357973 ] ] } },
{ "type": "Feature", "properties": { "name": "Arterial Link", "highway": "residential", "slope_pct": 0.6 }, "geometry": { "type": "LineString", "coordinates": [ [ 75.5652299, 26.8356148 ], [ 75.5653488, 26.8360832 ], [ 75.5653594, 26.8361022 ], [ 75.5653788, 26.8361148 ], [ 75.5656818, 26.836105 ], [ 75.5657287, 26.8361122 ], [ 75.5657663, 26.8361313 ], [ 75.5657944, 26.83616 ], [ 75.5658079, 26.8361887 ], [ 75.5658159, 26.8362629 ], [ 75.5658208, 26.836295 ], [ 75.5658221, 26.8363323 ], [ 75.5658911, 26.8363329 ], [ 75.5661284, 26.8363491 ], [ 75.5661525, 26.8363581 ], [ 75.5661686, 26.8363742 ], [ 75.5661818, 26.8364052 ], [ 75.5662672, 26.8368118 ] ] } },
{ "type": "Feature", "properties": { "name": "Arterial Link", "highway": "residential", "slope_pct": 0.6 }, "geometry": { "type": "LineString", "coordinates": [ [ 75.5672191, 26.8368782 ], [ 75.5674746, 26.8369066 ], [ 75.5675773, 26.8369066 ], [ 75.5676941, 26.8368941 ], [ 75.5678272, 26.8368608 ], [ 75.5694293, 26.8364375 ] ] } },
{ "type": "Feature", "properties": { "name": "Arterial Link", "highway": "residential", "slope_pct": 0.6 }, "geometry": { "type": "LineString", "coordinates": [ [ 75.5651315, 26.8370049 ], [ 75.5649036, 26.8365071 ], [ 75.5648796, 26.8364454 ], [ 75.5648507, 26.836371 ], [ 75.5646809, 26.8359246 ], [ 75.564663, 26.8359112 ], [ 75.5646416, 26.8359052 ], [ 75.5646107, 26.83591 ], [ 75.5643812, 26.8359718 ] ] } },
{ "type": "Feature", "properties": { "name": "Arterial Link", "highway": "residential", "slope_pct": 0.6 }, "geometry": { "type": "LineString", "coordinates": [ [ 75.5658221, 26.8363323 ], [ 75.5648796, 26.8364454 ] ] } },
{ "type": "Feature", "properties": { "name": "Arterial Link", "highway": "residential", "slope_pct": 0.6 }, "geometry": { "type": "LineString", "coordinates": [ [ 75.5641179, 26.8345045 ], [ 75.5637297, 26.8345158 ] ] } },
{ "type": "Feature", "properties": { "name": "Arterial Link", "highway": "residential", "slope_pct": 0.6 }, "geometry": { "type": "LineString", "coordinates": [ [ 75.5700102, 26.8368357 ], [ 75.5697359, 26.8359949 ] ] } },
{ "type": "Feature", "properties": { "name": "Arterial Link", "highway": "residential", "slope_pct": 0.6 }, "geometry": { "type": "LineString", "coordinates": [ [ 75.5703842, 26.8376086 ], [ 75.5702015, 26.8372197 ] ] } },
{ "type": "Feature", "properties": { "name": "Arterial Link", "highway": "residential", "slope_pct": 0.6 }, "geometry": { "type": "LineString", "coordinates": [ [ 75.5699878, 26.8376149 ], [ 75.5698743, 26.8373556 ] ] } },
{ "type": "Feature", "properties": { "name": "Arterial Link", "highway": "residential", "slope_pct": 0.6 }, "geometry": { "type": "LineString", "coordinates": [ [ 75.5674341, 26.8375195 ], [ 75.5683754, 26.8372547 ], [ 75.5687618, 26.8371557 ], [ 75.5691407, 26.8370585 ], [ 75.5695383, 26.8369566 ], [ 75.5695884, 26.8369438 ], [ 75.5700102, 26.8368357 ], [ 75.5702992, 26.8367615 ], [ 75.570335, 26.8367428 ], [ 75.5703529, 26.8367136 ], [ 75.5703553, 26.8366761 ], [ 75.5701054, 26.835899 ] ] } },
{ "type": "Feature", "properties": { "name": "Arterial Link", "highway": "residential", "slope_pct": 0.6 }, "geometry": { "type": "LineString", "coordinates": [ [ 75.5695884, 26.8369438 ], [ 75.5694293, 26.8364375 ], [ 75.5693203, 26.8360907 ] ] } },
{ "type": "Feature", "properties": { "name": "Arterial Link", "highway": "residential", "slope_pct": 0.6 }, "geometry": { "type": "LineString", "coordinates": [ [ 75.5679249, 26.8381653 ], [ 75.5684181, 26.8379604 ], [ 75.5687803, 26.83781 ], [ 75.5698743, 26.8373556 ], [ 75.5702015, 26.8372197 ], [ 75.5705045, 26.8370939 ] ] } },
{ "type": "Feature", "properties": { "name": "Arterial Link", "highway": "residential", "slope_pct": 0.6 }, "geometry": { "type": "LineString", "coordinates": [ [ 75.5696233, 26.8372075 ], [ 75.5695383, 26.8369566 ] ] } },
{ "type": "Feature", "properties": { "name": "Arterial Link", "highway": "residential", "slope_pct": 0.6 }, "geometry": { "type": "LineString", "coordinates": [ [ 75.5688213, 26.846774 ], [ 75.5692421, 26.8467109 ], [ 75.5696168, 26.8466367 ], [ 75.5700341, 26.8465408 ], [ 75.570408, 26.8464286 ], [ 75.5704768, 26.8464087 ], [ 75.5708631, 26.8462967 ], [ 75.5711264, 26.8462221 ] ] } },
{ "type": "Feature", "properties": { "name": "Arterial Link", "highway": "residential", "slope_pct": 0.6 }, "geometry": { "type": "LineString", "coordinates": [ [ 75.5715149, 26.8493002 ], [ 75.5711971, 26.8484717 ], [ 75.5708402, 26.8475349 ], [ 75.570408, 26.8464286 ] ] } },
{ "type": "Feature", "properties": { "name": "Arterial Link", "highway": "residential", "slope_pct": 0.6 }, "geometry": { "type": "LineString", "coordinates": [ [ 75.571126, 26.8493972 ], [ 75.5708185, 26.848589 ], [ 75.5704779, 26.8476937 ], [ 75.5700341, 26.8465408 ], [ 75.5699826, 26.8462586 ], [ 75.5699263, 26.8459723 ], [ 75.5698531, 26.8456493 ], [ 75.5698465, 26.8456169 ], [ 75.5698417, 26.845593 ], [ 75.5698429, 26.845567 ], [ 75.569854, 26.8455524 ], [ 75.5698753, 26.8455434 ], [ 75.5701458, 26.8455215 ], [ 75.5704884, 26.8454939 ], [ 75.5705392, 26.8455049 ], [ 75.5705738, 26.8455376 ], [ 75.570589, 26.8455774 ], [ 75.5708631, 26.8462967 ], [ 75.5716399, 26.8483447 ], [ 75.5719353, 26.849148 ] ] } },
{ "type": "Feature", "properties": { "name": "Arterial Link", "highway": "residential", "slope_pct": 0.6 }, "geometry": { "type": "LineString", "coordinates": [ [ 75.5771753, 26.8512714 ], [ 75.5768426, 26.8509809 ], [ 75.5766455, 26.8508246 ], [ 75.5761551, 26.8503374 ], [ 75.5759436, 26.8501182 ], [ 75.5757682, 26.849903 ], [ 75.5754213, 26.8494398 ], [ 75.5749811, 26.848868 ], [ 75.5747247, 26.848538 ], [ 75.5742772, 26.8480038 ], [ 75.5740789, 26.8477434 ], [ 75.5739294, 26.8474192 ], [ 75.573654, 26.8469105 ], [ 75.5733886, 26.8463242 ], [ 75.5733404, 26.8461785 ], [ 75.5733187, 26.8460757 ], [ 75.5733002, 26.8459544 ], [ 75.5732633, 26.8455987 ], [ 75.5732619, 26.845525 ], [ 75.57327, 26.8454647 ], [ 75.573329, 26.8454171 ], [ 75.5735786, 26.8452759 ], [ 75.5736153, 26.8452335 ], [ 75.5736256, 26.8451807 ], [ 75.5736169, 26.8451163 ], [ 75.5733316, 26.8445619 ], [ 75.5729992, 26.8439286 ], [ 75.5725783, 26.8431917 ], [ 75.5725416, 26.8431133 ], [ 75.5725116, 26.8430439 ], [ 75.5725326, 26.8429946 ], [ 75.5726191, 26.842927 ], [ 75.5727437, 26.8427737 ], [ 75.5727576, 26.8427132 ], [ 75.5727483, 26.8426569 ], [ 75.5727206, 26.8425964 ], [ 75.5724335, 26.8421198 ], [ 75.5723199, 26.8419471 ], [ 75.5721027, 26.8415415 ], [ 75.5720235, 26.8413596 ], [ 75.5719417, 26.8411262 ], [ 75.5717258, 26.8404059 ], [ 75.5716896, 26.8403155 ], [ 75.5716534, 26.840276 ], [ 75.5716185, 26.8402629 ], [ 75.5715716, 26.8402485 ], [ 75.5707468, 26.8402468 ], [ 75.5706087, 26.8402626 ], [ 75.5705096, 26.8402973 ], [ 75.5703221, 26.8405089 ], [ 75.5702654, 26.840531 ], [ 75.5702123, 26.840531 ], [ 75.5696001, 26.8401047 ], [ 75.5695301, 26.840027 ], [ 75.5694641, 26.8399766 ], [ 75.5694526, 26.8399125 ], [ 75.5694574, 26.8398578 ], [ 75.5694787, 26.8397508 ], [ 75.5694822, 26.8397019 ], [ 75.5694588, 26.8396631 ], [ 75.5692537, 26.8393254 ], [ 75.5691919, 26.8392233 ], [ 75.5691271, 26.8391254 ], [ 75.5685719, 26.8384675 ], [ 75.56854, 26.8384454 ], [ 75.5685011, 26.8384312 ], [ 75.5684551, 26.838428 ], [ 75.5682445, 26.8384596 ], [ 75.5681985, 26.8384596 ], [ 75.5681578, 26.8384454 ], [ 75.5681153, 26.8384138 ], [ 75.5679249, 26.8381653 ], [ 75.5674341, 26.8375195 ], [ 75.5670687, 26.8374985 ], [ 75.5670267, 26.8374922 ], [ 75.5669963, 26.8374735 ], [ 75.5669753, 26.8374547 ], [ 75.5669479, 26.8373801 ], [ 75.5669249, 26.837358 ], [ 75.5668948, 26.8373453 ], [ 75.5668328, 26.837339 ], [ 75.5662592, 26.8374273 ], [ 75.5662195, 26.837446 ], [ 75.5662009, 26.8374752 ], [ 75.5661892, 26.8375085 ], [ 75.5661961, 26.8375437 ], [ 75.5663948, 26.8380523 ], [ 75.5663964, 26.8380826 ], [ 75.5663871, 26.8381046 ], [ 75.5663579, 26.8381293 ], [ 75.5652146, 26.8385116 ] ] } },
{ "type": "Feature", "properties": { "name": "Arterial Link", "highway": "residential", "slope_pct": 0.6 }, "geometry": { "type": "LineString", "coordinates": [ [ 75.5686206, 26.8453213 ], [ 75.5682857, 26.8453729 ], [ 75.5680305, 26.8454123 ], [ 75.5679507, 26.8453888 ], [ 75.5678916, 26.8453652 ], [ 75.56786, 26.8453209 ], [ 75.5677411, 26.8447518 ] ] } },
{ "type": "Feature", "properties": { "name": "Arterial Link", "highway": "residential", "slope_pct": 0.6 }, "geometry": { "type": "LineString", "coordinates": [ [ 75.5682857, 26.8453729 ], [ 75.5681004, 26.8446433 ] ] } },
{ "type": "Feature", "properties": { "name": "Arterial Link", "highway": "residential", "slope_pct": 0.6 }, "geometry": { "type": "LineString", "coordinates": [ [ 75.5685556, 26.8450589 ], [ 75.5690211, 26.8449584 ] ] } },
{ "type": "Feature", "properties": { "name": "Arterial Link", "highway": "residential", "slope_pct": 0.6 }, "geometry": { "type": "LineString", "coordinates": [ [ 75.5682857, 26.8453729 ], [ 75.5683362, 26.8455085 ], [ 75.5683941, 26.8460616 ] ] } },
{ "type": "Feature", "properties": { "name": "Arterial Link", "highway": "tertiary", "slope_pct": 0.6 }, "geometry": { "type": "LineString", "coordinates": [ [ 75.5637192, 26.8415098 ], [ 75.5638571, 26.8415563 ] ] } },
{ "type": "Feature", "properties": { "name": "Arterial Link", "highway": "tertiary", "slope_pct": 0.6 }, "geometry": { "type": "LineString", "coordinates": [ [ 75.5637192, 26.8415098 ], [ 75.5634978, 26.8414351 ] ] } },
{ "type": "Feature", "properties": { "name": "Arterial Link", "highway": "residential", "slope_pct": 0.6 }, "geometry": { "type": "LineString", "coordinates": [ [ 75.5704768, 26.8464087 ], [ 75.5701696, 26.8456014 ], [ 75.5701458, 26.8455215 ] ] } },
{ "type": "Feature", "properties": { "name": "Arterial Link", "highway": "residential", "slope_pct": 0.6 }, "geometry": { "type": "LineString", "coordinates": [ [ 75.5698465, 26.8456169 ], [ 75.5701696, 26.8456014 ], [ 75.570589, 26.8455774 ] ] } }
]
}
